start=new Date('2023-02-09T00:00:00.000Z').valueOf();
sats=[{"RA_OF_ASC_NODE":"167.1905","ELEMENT_SET_NO":"999","REV_AT_EPOCH":"13021","FILE":"3780893","GP_ID":"224855233","OBJECT_TYPE":"PAYLOAD","REF_FRAME":"TEME","COUNTRY_CODE":"US","INCLINATION":"53.0539","TLE_LINE1":"1 46563U 20070AH  23039.63371814  .00000532  00000-0  54632-4 0  9997","ARG_OF_PERICENTER":"124.0423","MEAN_MOTION_DDOT":"0.0000000000000","DECAY_DATE":null,"TIME_SYSTEM":"UTC","MEAN_MOTION":"15.06401451","BSTAR":"0.00005463200000","OBJECT_ID":"2020-070AH","SEMIMAJOR_AXIS":"6925.344","CENTER_NAME":"EARTH","TLE_LINE2":"2 46563  53.0539 167.1905 0001509 124.0423 236.0709 15.06401451130212","RCS_SIZE":"LARGE","MEAN_ELEMENT_THEORY":"SGP4","APOAPSIS":"548.254","MEAN_ANOMALY":"236.0709","EPOCH":"2023-02-08T15:12:33.247296","EPHEMERIS_TYPE":"0","ECCENTRICITY":"0.00015090","SITE":"AFETR","PERIAPSIS":"546.164","CLASSIFICATION_TYPE":"U","NORAD_CAT_ID":"46563","PERIOD":"95.592","LAUNCH_DATE":"2020-10-06","OBJECT_NAME":"STARLINK-1730","MEAN_MOTION_DOT":"0.00000532"},{"CLASSIFICATION_TYPE":"U","PERIAPSIS":"546.395","SITE":"AFETR","ECCENTRICITY":"0.00011060","LAUNCH_DATE":"2020-10-06","PERIOD":"95.591","NORAD_CAT_ID":"46564","OBJECT_NAME":"STARLINK-1733","MEAN_MOTION_DOT":"0.00001941","CENTER_NAME":"EARTH","SEMIMAJOR_AXIS":"6925.296","OBJECT_ID":"2020-070AJ","BSTAR":"0.00014909000000","MEAN_MOTION":"15.06417148","TIME_SYSTEM":"UTC","APOAPSIS":"547.927","MEAN_ELEMENT_THEORY":"SGP4","RCS_SIZE":"LARGE","TLE_LINE2":"2 46564  53.0567 166.3770 0001106  90.3149 269.7967 15.06417148130240","MEAN_ANOMALY":"269.7967","EPHEMERIS_TYPE":"0","EPOCH":"2023-02-08T19:32:37.387104","TLE_LINE1":"1 46564U 20070AJ  23039.81432161  .00001941  00000-0  14909-3 0  9998","INCLINATION":"53.0567","DECAY_DATE":null,"MEAN_MOTION_DDOT":"0.0000000000000","ARG_OF_PERICENTER":"90.3149","RA_OF_ASC_NODE":"166.3770","GP_ID":"224856483","FILE":"3780893","REV_AT_EPOCH":"13024","ELEMENT_SET_NO":"999","REF_FRAME":"TEME","OBJECT_TYPE":"PAYLOAD","COUNTRY_CODE":"US"},{"RA_OF_ASC_NODE":"167.0755","ELEMENT_SET_NO":"999","GP_ID":"224856235","FILE":"3780893","REV_AT_EPOCH":"13021","REF_FRAME":"TEME","OBJECT_TYPE":"PAYLOAD","COUNTRY_CODE":"US","TLE_LINE1":"1 46565U 20070AK  23039.65952262  .00035888  00000-0  24150-2 0  9995","INCLINATION":"53.0526","MEAN_MOTION_DDOT":"0.0000000000000","ARG_OF_PERICENTER":"88.6199","DECAY_DATE":null,"MEAN_MOTION":"15.06415313","TIME_SYSTEM":"UTC","SEMIMAJOR_AXIS":"6925.302","OBJECT_ID":"2020-070AK","CENTER_NAME":"EARTH","BSTAR":"0.00241500000000","TLE_LINE2":"2 46565  53.0526 167.0755 0001160  88.6199 271.4923 15.06415313130213","MEAN_ELEMENT_THEORY":"SGP4","APOAPSIS":"547.970","RCS_SIZE":"LARGE","MEAN_ANOMALY":"271.4923","EPOCH":"2023-02-08T15:49:42.754368","EPHEMERIS_TYPE":"0","SITE":"AFETR","ECCENTRICITY":"0.00011600","CLASSIFICATION_TYPE":"U","PERIAPSIS":"546.363","PERIOD":"95.591","NORAD_CAT_ID":"46565","LAUNCH_DATE":"2020-10-06","OBJECT_NAME":"STARLINK-1735","MEAN_MOTION_DOT":"0.00035888"},{"DECAY_DATE":null,"MEAN_MOTION_DDOT":"0.0000000000000","ARG_OF_PERICENTER":"95.7899","INCLINATION":"53.0534","TLE_LINE1":"1 46566U 20070AL  23039.71112058  .00000807  00000-0  73069-4 0  9992","COUNTRY_CODE":"US","OBJECT_TYPE":"PAYLOAD","REF_FRAME":"TEME","REV_AT_EPOCH":"13022","FILE":"3780893","GP_ID":"224854983","ELEMENT_SET_NO":"999","RA_OF_ASC_NODE":"166.8395","MEAN_MOTION_DOT":"0.00000807","OBJECT_NAME":"STARLINK-1740","LAUNCH_DATE":"2020-10-06","NORAD_CAT_ID":"46566","PERIOD":"95.592","CLASSIFICATION_TYPE":"U","PERIAPSIS":"546.542","SITE":"AFETR","ECCENTRICITY":"0.00009450","EPHEMERIS_TYPE":"0","EPOCH":"2023-02-08T17:04:00.818112","MEAN_ANOMALY":"264.3197","RCS_SIZE":"LARGE","MEAN_ELEMENT_THEORY":"SGP4","APOAPSIS":"547.851","TLE_LINE2":"2 46566  53.0534 166.8395 0000945  95.7899 264.3197 15.06405686130223","BSTAR":"0.00007306900000","SEMIMAJOR_AXIS":"6925.331","CENTER_NAME":"EARTH","OBJECT_ID":"2020-070AL","TIME_SYSTEM":"UTC","MEAN_MOTION":"15.06405686"},{"OBJECT_NAME":"STARLINK-1741","MEAN_MOTION_DOT":"0.00002006","ECCENTRICITY":"0.00010590","SITE":"AFETR","PERIAPSIS":"546.440","CLASSIFICATION_TYPE":"U","PERIOD":"95.591","NORAD_CAT_ID":"46567","LAUNCH_DATE":"2020-10-06","MEAN_ANOMALY":"266.2437","EPOCH":"2023-02-08T17:46:28.221024","EPHEMERIS_TYPE":"0","MEAN_MOTION":"15.06413197","TIME_SYSTEM":"UTC","SEMIMAJOR_AXIS":"6925.308","OBJECT_ID":"2020-070AM","CENTER_NAME":"EARTH","BSTAR":"0.00015343000000","TLE_LINE2":"2 46567  53.0543 166.7148 0001059  93.8673 266.2437 15.06413197130230","MEAN_ELEMENT_THEORY":"SGP4","APOAPSIS":"547.907","RCS_SIZE":"LARGE","TLE_LINE1":"1 46567U 20070AM  23039.74060441  .00002006  00000-0  15343-3 0  9997","INCLINATION":"53.0543","MEAN_MOTION_DDOT":"0.0000000000000","ARG_OF_PERICENTER":"93.8673","DECAY_DATE":null,"REF_FRAME":"TEME","OBJECT_TYPE":"PAYLOAD","COUNTRY_CODE":"US","RA_OF_ASC_NODE":"166.7148","ELEMENT_SET_NO":"999","GP_ID":"224855733","FILE":"3780893","REV_AT_EPOCH":"13023"},{"COUNTRY_CODE":"US","REF_FRAME":"TEME","OBJECT_TYPE":"PAYLOAD","ELEMENT_SET_NO":"999","GP_ID":"224855985","FILE":"3780893","REV_AT_EPOCH":"13023","RA_OF_ASC_NODE":"166.6490","MEAN_MOTION_DDOT":"0.0000000000000","ARG_OF_PERICENTER":"90.9352","DECAY_DATE":null,"TLE_LINE1":"1 46569U 20070AP  23039.75534590 -.00000857  00000-0 -38644-4 0  9995","INCLINATION":"53.0555","EPOCH":"2023-02-08T18:07:41.885760","EPHEMERIS_TYPE":"0","MEAN_ANOMALY":"269.1754","TLE_LINE2":"2 46569  53.0555 166.6490 0001019  90.9352 269.1754 15.06419225130234","MEAN_ELEMENT_THEORY":"SGP4","APOAPSIS":"547.860","RCS_SIZE":"LARGE","MEAN_MOTION":"15.06419225","TIME_SYSTEM":"UTC","CENTER_NAME":"EARTH","SEMIMAJOR_AXIS":"6925.290","OBJECT_ID":"2020-070AP","BSTAR":"-0.00003864400000","MEAN_MOTION_DOT":"-0.00000857","OBJECT_NAME":"STARLINK-1747","PERIOD":"95.591","NORAD_CAT_ID":"46569","LAUNCH_DATE":"2020-10-06","SITE":"AFETR","ECCENTRICITY":"0.00010190","PERIAPSIS":"546.449","CLASSIFICATION_TYPE":"U"},{"MEAN_MOTION_DOT":"0.00083194","OBJECT_NAME":"STARLINK-1748","NORAD_CAT_ID":"46570","PERIOD":"94.820","LAUNCH_DATE":"2020-10-06","SITE":"AFETR","ECCENTRICITY":"0.00009080","CLASSIFICATION_TYPE":"U","PERIAPSIS":"509.233","EPOCH":"2023-02-08T19:45:04.370400","EPHEMERIS_TYPE":"0","MEAN_ANOMALY":"277.6945","TLE_LINE2":"2 46570  53.0561 157.6195 0000908  82.4152 277.6945 15.18670869130361","RCS_SIZE":"LARGE","APOAPSIS":"510.484","MEAN_ELEMENT_THEORY":"SGP4","TIME_SYSTEM":"UTC","MEAN_MOTION":"15.18670869","BSTAR":"0.00393430000000","SEMIMAJOR_AXIS":"6887.994","CENTER_NAME":"EARTH","OBJECT_ID":"2020-070AQ","MEAN_MOTION_DDOT":"0.0000000000000","ARG_OF_PERICENTER":"82.4152","DECAY_DATE":null,"INCLINATION":"53.0561","TLE_LINE1":"1 46570U 20070AQ  23039.82296725  .00083194  00000-0  39343-2 0  9998","COUNTRY_CODE":"US","OBJECT_TYPE":"PAYLOAD","REF_FRAME":"TEME","ELEMENT_SET_NO":"999","FILE":"3780893","REV_AT_EPOCH":"13036","GP_ID":"224856733","RA_OF_ASC_NODE":"157.6195"},{"RA_OF_ASC_NODE":"186.7627","GP_ID":"224855483","REV_AT_EPOCH":"12994","FILE":"3780893","ELEMENT_SET_NO":"999","REF_FRAME":"TEME","OBJECT_TYPE":"PAYLOAD","COUNTRY_CODE":"US","TLE_LINE1":"1 46572U 20070AS  23039.72676352  .00000629  00000-0  61095-4 0  9990","INCLINATION":"53.0547","DECAY_DATE":null,"MEAN_MOTION_DDOT":"0.0000000000000","ARG_OF_PERICENTER":"73.4618","CENTER_NAME":"EARTH","SEMIMAJOR_AXIS":"6925.325","OBJECT_ID":"2020-070AS","BSTAR":"0.00006109500000","MEAN_MOTION":"15.06407784","TIME_SYSTEM":"UTC","APOAPSIS":"548.033","MEAN_ELEMENT_THEORY":"SGP4","RCS_SIZE":"LARGE","TLE_LINE2":"2 46572  53.0547 186.7627 0001218  73.4618 286.6505 15.06407784129947","MEAN_ANOMALY":"286.6505","EPHEMERIS_TYPE":"0","EPOCH":"2023-02-08T17:26:32.368128","PERIAPSIS":"546.346","CLASSIFICATION_TYPE":"U","SITE":"AFETR","ECCENTRICITY":"0.00012180","LAUNCH_DATE":"2020-10-06","PERIOD":"95.592","NORAD_CAT_ID":"46572","OBJECT_NAME":"STARLINK-1531","MEAN_MOTION_DOT":"0.00000629"},{"MEAN_MOTION_DDOT":"0.0000000000000","ARG_OF_PERICENTER":"350.6836","DECAY_DATE":null,"INCLINATION":"53.0548","TLE_LINE1":"1 46573U 20070AT  23039.57659105  .00095916  00000-0  13607-2 0  9998","COUNTRY_CODE":"US","OBJECT_TYPE":"PAYLOAD","REF_FRAME":"TEME","ELEMENT_SET_NO":"999","REV_AT_EPOCH":"13040","FILE":"3780324","GP_ID":"224820919","RA_OF_ASC_NODE":"153.4003","MEAN_MOTION_DOT":"0.00095916","OBJECT_NAME":"STARLINK-1650","NORAD_CAT_ID":"46573","PERIOD":"92.564","LAUNCH_DATE":"2020-10-06","ECCENTRICITY":"0.00016040","SITE":"AFETR","CLASSIFICATION_TYPE":"U","PERIAPSIS":"399.077","EPOCH":"2023-02-08T13:50:17.466720","EPHEMERIS_TYPE":"0","MEAN_ANOMALY":"9.4144","TLE_LINE2":"2 46573  53.0548 153.4003 0001604 350.6836   9.4144 15.55684966130405","RCS_SIZE":"LARGE","MEAN_ELEMENT_THEORY":"SGP4","APOAPSIS":"401.251","TIME_SYSTEM":"UTC","MEAN_MOTION":"15.55684966","BSTAR":"0.00136070000000","CENTER_NAME":"EARTH","SEMIMAJOR_AXIS":"6778.299","OBJECT_ID":"2020-070AT"},{"OBJECT_NAME":"STARLINK-1660","MEAN_MOTION_DOT":"0.00000259","PERIAPSIS":"546.067","CLASSIFICATION_TYPE":"U","SITE":"AFETR","ECCENTRICITY":"0.00016390","LAUNCH_DATE":"2020-10-06","NORAD_CAT_ID":"46574","PERIOD":"95.592","MEAN_ANOMALY":"273.7518","EPHEMERIS_TYPE":"0","EPOCH":"2023-02-08T16:34:09.801408","BSTAR":"0.00003628300000","SEMIMAJOR_AXIS":"6925.337","OBJECT_ID":"2020-070AU","CENTER_NAME":"EARTH","TIME_SYSTEM":"UTC","MEAN_MOTION":"15.06403778","RCS_SIZE":"LARGE","APOAPSIS":"548.337","MEAN_ELEMENT_THEORY":"SGP4","TLE_LINE2":"2 46574  53.0529 171.9359 0001639  86.3658 273.7518 15.06403778130156","INCLINATION":"53.0529","TLE_LINE1":"1 46574U 20070AU  23039.69039122  .00000259  00000-0  36283-4 0  9996","DECAY_DATE":null,"MEAN_MOTION_DDOT":"0.0000000000000","ARG_OF_PERICENTER":"86.3658","OBJECT_TYPE":"PAYLOAD","REF_FRAME":"TEME","COUNTRY_CODE":"US","RA_OF_ASC_NODE":"171.9359","REV_AT_EPOCH":"13015","FILE":"3780893","GP_ID":"224856484","ELEMENT_SET_NO":"999"}];
